LEMUR-2-LEIA-PHILIP     
1 63246U 25052AN  26200.21292455  .00000052  00000+0  93802-5 0  9998
2 63246  97.6794  91.6202 0005044 111.1150 249.0611 14.97392781 73462
LEMUR-2-LIA-MARTIN      
1 63248U 25052AQ  26200.20574828  .00001232  00000+0  10911-3 0  9995
2 63248  97.6854  92.1388 0005051  80.1011 280.0781 14.98043420 73479
LEMUR-2-DELOITTE-1      
1 63259U 25052BB  26200.25366864  .00002369  00000+0  20660-3 0  9995
2 63259  97.6885  92.5158 0002540  59.0994 301.0478 14.97801761 73497
LEMUR-2-EMERSONROSE     
1 63261U 25052BD  26200.19702698  .00002223  00000+0  18682-3 0  9990
2 63261  97.6884  93.0826 0002472  51.1430 309.0014 14.99310093 73533
LEMUR-2-MARACHE-FRAN    
1 63262U 25052BE  26200.21701608  .00001563  00000+0  12932-3 0  9992
2 63262  97.6818  93.4730 0005683 236.5644 123.5037 15.00329187 73566
LEMUR-2-THEFALCONER     
1 63264U 25052BG  26200.21791489  .00001113  00000+0  10029-3 0  9996
2 63264  97.6817  92.0667 0000591 231.4008 128.7162 14.97572260 73486
LEMUR-2-UNTITLED-SC     
1 63351U 25061A   26199.88793217  .00001770  00000+0  10174-3 0  9994
2 63351  97.5660 175.0260 0019552 150.7612 209.4718 15.13659594 72387
LEMUR-2-ESPERANZA       
1 63352U 25061B   26199.86300779  .00001715  00000+0  98409-4 0  9997
2 63352  97.5666 175.1024 0019168 150.1624 210.0705 15.13765530 72385
LEMUR-2-KREMPEL-BRO2    
1 63353U 25061C   26199.88094642  .00001858  00000+0  10498-3 0  9998
2 63353  97.5710 175.6939 0020287 143.0980 217.1652 15.14192896 72408
LEMUR-2-THERMORAPTOR    
1 63354U 25061D   26200.19170284  .00001833  00000+0  10339-3 0  9990
2 63354  97.5718 176.0849 0020049 141.0309 219.2372 15.14276853 72454
LEMUR-2-NEUROSPICY      
1 63355U 25061E   26199.89660350  .00001843  00000+0  10373-3 0  9992
2 63355  97.5646 175.3929 0017805 144.7929 215.4483 15.14394723 72414
LEMUR-2-TILLINFINITY    
1 63356U 25061F   26200.18384588  .00001946  00000+0  10748-3 0  9994
2 63356  97.5631 175.9915 0019316 132.9139 227.3718 15.14980545 72484
LEMUR-2-KREMPEL-BRO1    
1 63357U 25061G   26199.89717339  .00001867  00000+0  10378-3 0  9995
2 63357  97.5632 175.6133 0019966 135.2144 225.0704 15.14786023 72438
LEMUR-2-LANGER2SPACE    
1 63358U 25061H   26200.19433302  .00001861  00000+0  10444-3 0  9995
2 63358  97.5637 175.7101 0017728 142.2075 218.0406 15.14480543 72467
LEMUR-2-BALTO           
1 63395U 25052BH  26200.20123759  .00002096  00000+0  17161-3 0  9994
2 63395  97.6919  93.4511 0004994 310.3136  49.7650 15.00382990 73564
LEMUR-2-KRISH           
1 64561U 25135AK  26200.23921362  .00001949  00000+0  17691-3 0  9995
2 64561  97.7765 314.9038 0001111 103.9024 256.2321 14.96463590 58715
